SITRO-AIS-24
1 61741U 24199G   26068.95501518  .00004091  00000-0  37286-3 0  9993
2 61741  97.3325 273.3822 0013403  42.6191 317.6069 14.95574575117059
SITRO-AIS-19
1 61759U 24199AA  26068.95546730  .00003731  00000-0  32570-3 0  9998
2 61759  97.3309 274.6556 0006897  52.1847 307.9999 14.97361264120285
